PROBA-1                 
1 26958U 01049B   18247.44639424  .00000615  00000-0  58554-4 0  9995
2 26958  97.6237 205.7012 0071392 280.9132  78.4059 14.95275904917905
BIRD 2                  
1 26959U 01049C   18246.97324054  .00001014  00000-0  31484-4 0  9990
2 26959  97.8436 225.7199 0006984 246.4451 113.6058 15.36014448934419
CUTE-1 (CO-55)          
1 27844U 03031E   18246.96932440  .00000037  00000-0  36195-4 0  9998
2 27844  98.6876 254.4648 0010530 138.4883 221.7096 14.22130811787358
CUBESAT XI-IV (CO-57)   
1 27848U 03031J   18246.95063055  .00000031  00000-0  33999-4 0  9991
2 27848  98.6961 254.8702 0010246 148.5186 211.6606 14.21732871787228
GENESIS 1               
1 29252U 06029A   18247.43606199  .00000047  00000-0  12812-4 0  9996
2 29252  64.5032 273.7975 0046852 279.7837  79.7997 15.17403357669229
FALCONSAT-3             
1 30776U 07006E   18246.91994885  .00001808  00000-0  53799-4 0  9994
2 30776  35.4353 125.4153 0002705   1.7221 358.3514 15.34842133636420
GENESIS 2               
1 31789U 07028A   18247.23800110  .00000035  00000-0  12235-4 0  9997
2 31789  64.5044 314.0558 0026283 320.8842  39.0379 15.16638271616236
APRIZESAT 4             
1 35684U 09041D   18246.87846672  .00000039  00000-0  12734-4 0  9992
2 35684  98.1808 200.3357 0048516 108.8639 251.7841 14.79149291490717
APRIZESAT 3             
1 35686U 09041F   18246.95381815  .00000044  00000-0  11588-4 0  9998
2 35686  98.2684 270.1899 0073334  12.7617 347.5432 14.87233181493098
PROBA-2                 
1 36037U 09059B   18247.51696673  .00000002  00000-0  11331-4 0  9992
2 36037  98.2410  78.6372 0014409  51.4255 308.8230 14.53047289468654
APRIZESAT 5             
1 37792U 11044E   18247.44707791  .00000039  00000-0  14032-4 0  9995
2 37792  98.3953  50.5099 0059571  78.5067 282.2823 14.75259876379364
APRIZESAT 6             
1 37793U 11044F   18246.95343611  .00000056  00000-0  17339-4 0  9990
2 37793  98.3503  30.6063 0048235 107.7257   5.1604 14.72330707378411
TET-1                   
1 38710U 12039D   18246.98263354  .00001939  00000-0  38938-4 0  9992
2 38710  97.5979 228.2066 0003084  67.9660 292.1917 15.48042944342845
STSAT-2C                
1 39068U 13003A   18246.61768993  .00038375 -39311-6  23673-3 0  9997
2 39068  80.1866 244.4522 0243670  54.4279 307.9406 15.45903588300351
PROBA-V                 
1 39159U 13021A   18247.26292539  .00000004  00000-0  20829-4 0  9993
2 39159  98.5512 316.7161 0004491 150.2106 209.9325 14.22964577276751
CUSAT 1                 
1 39266U 13055B   18247.19214812  .00004323  00000-0  11844-3 0  9993
2 39266  80.9832 264.3574 0646446   7.7933 353.2719 14.33003975255500
STPSAT-3                
1 39380U 13064A   18246.78163968  .00001119  00000-0  37218-4 0  9993
2 39380  40.5017  13.3031 0002704 193.2597 166.8147 15.36243276266334
APRIZESAT 7             
1 39416U 13066A   18246.70175105  .00000022  00000-0  87990-5 0  9998
2 39416  97.5776 280.8995 0040031 233.0586 126.6960 14.83825419258990
APRIZESAT 8             
1 39425U 13066K   18246.90281172  .00000023  00000-0  95210-5 0  9997
2 39425  97.5783 273.2180 0050501 252.7108 106.8576 14.81056798258303
BUGSAT-1 (TITA)         
1 40014U 14033E   18247.34409095 -.00000075  00000-0 -10610-5 0  9993
2 40014  97.9805 184.1112 0030857 295.1939  64.6065 14.95099891229564
SAUDISAT 4              
1 40016U 14033G   18246.71651966 -.00000013  00000-0  55756-5 0  9992
2 40016  97.8026 125.0644 0047127 297.7590  61.8844 14.75200405226545
TABLETSAT-AURORA        
1 40017U 14033H   18247.48762449  .00000478  00000-0  51393-4 0  9993
2 40017  97.9574 177.6081 0022264 300.3547  59.5470 14.93150406229267
APRIZESAT 9             
1 40018U 14033J   18247.55143822 -.00000009  00000-0  67310-5 0  9998
2 40018  97.7805 111.0018 0070798 329.2273  30.4791 14.69887906225766
APRIZESAT 10            
1 40019U 14033K   18247.53295412  .00000013  00000-0  10628-4 0  9993
2 40019  97.7759 103.2238 0084099 349.3085  10.6329 14.66953425225365
AISAT                   
1 40054U 14034B   18247.38845605  .00000278  00000-0  46565-4 0  9993
2 40054  98.2078 359.1429 0014001  65.1746 295.0918 14.77541979225307
CANX-4                  
1 40055U 14034C   18247.32987670  .00000053  00000-0  15817-4 0  9994
2 40055  98.1980 354.3152 0015592  84.7664 275.5323 14.74748538225019
CANX-5                  
1 40056U 14034D   18246.85675363  .00000057  00000-0  16427-4 0  9997
2 40056  98.1980 353.8316 0015618  86.3162 273.9832 14.74746759224947
TDS 1                   
1 40076U 14037H   18247.35178167  .00000036  00000-0  12007-4 0  9995
2 40076  98.3782  22.1304 0006792  84.1917 276.0073 14.81430905224785
TIANTUO 2               
1 40144U 14053B   18247.54365227  .00000602  00000-0  20632-4 0  9997
2 40144  97.2946 330.0635 0012967 117.3544 342.3237 15.33964413223091
TECHNOSAT               
1 42829U 17042E   18247.49589888  .00000017  00000-0  71653-5 0  9995
2 42829  97.5878 146.8280 0012920 299.3911  60.6017 14.90855339 62148
FLYING LAPTOP           
1 42831U 17042G   18247.35384900  .00000083  00000-0  13875-4 0  9995
2 42831  97.5882 146.7242 0012853 300.5310  59.4640 14.90885551 62121
